{"fetched_at":"2026-07-15T06:36:20.935Z","source":"https://celestrak.org/NORAD/elements/gp.php?NAME=RADARSAT&FORMAT=JSON","constellation":"radarsat-2","records":[{"OBJECT_NAME":"RADARSAT-2","OBJECT_ID":"2007-061A","EPOCH":"2026-07-14T22:56:54.771072","CLASSIFICATION_TYPE":"U","MEAN_MOTION":14.29982628,"ECCENTRICITY":0.00012937,"INCLINATION":98.5778,"RA_OF_ASC_NODE":202.4919,"ARG_OF_PERICENTER":85.1441,"MEAN_ANOMALY":274.9889,"EPHEMERIS_TYPE":0,"NORAD_CAT_ID":32382,"ELEMENT_SET_NO":999,"REV_AT_EPOCH":96992,"BSTAR":-0.000054105581,"MEAN_MOTION_DOT":-0.00000183,"MEAN_MOTION_DDOT":0}]}
